     2.11           GLONASS NAV DATA                        RINEX VERSION / TYPE
CONVBIN 2.4.3                           20160908 091907 UTC PGM / RUN BY / DATE 
log: xxx.ubx                                                COMMENT             
format: u-blox                                              COMMENT             
                                                            END OF HEADER       
20 16  9  8  9 15  0.0 -.252121128142E-03 -.909494701773E-12  .333300000000E+05
     .864695361328E+04 -.198320102692E+01  .000000000000E+00  .000000000000E+00
     .620333203125E+04  .248212623596E+01  .000000000000E+00  .200000000000E+01
     .231800078125E+05  .798521041870E-01 -.186264514923E-08  .000000000000E+00
11 16  9  8  9 15  0.0  .168308615685E-04  .000000000000E+00  .333300000000E+05
     .135629516602E+05  .274755764008E+01  .931322574615E-09  .000000000000E+00
    -.764669287109E+04  .316519737244E+00 -.186264514923E-08  .000000000000E+00
     .202083964844E+05 -.173019027710E+01 -.931322574615E-09  .000000000000E+00
21 16  9  8  9 15  0.0  .807056203485E-04  .181898940355E-11  .333300000000E+05
     .169947265625E+05 -.148679542542E+01  .000000000000E+00  .000000000000E+00
    -.951968896484E+04  .170481681824E+01 -.186264514923E-08  .400000000000E+01
     .164793496094E+05  .251431179047E+01  .000000000000E+00  .000000000000E+00
 3 16  9  8  9 15  0.0  .792648643255E-04  .909494701773E-12  .333300000000E+05
    -.121332475586E+05 -.122308158875E+01  .931322574615E-09  .000000000000E+00
    -.122259423828E+04 -.280718231201E+01 -.931322574615E-09  .500000000000E+01
     .224398354492E+05 -.818796157837E+00 -.186264514923E-08  .000000000000E+00
